OBJECT_NAME,OBJECT_ID,EPOCH,MEAN_MOTION,ECCENTRICITY,INCLINATION,RA_OF_ASC_NODE,ARG_OF_PERICENTER,MEAN_ANOMALY,EPHEMERIS_TYPE,CLASSIFICATION_TYPE,NORAD_CAT_ID,ELEMENT_SET_NO,REV_AT_EPOCH,BSTAR,MEAN_MOTION_DOT,MEAN_MOTION_DDOT
STARLINK-31427,2024-049L,2026-07-01T19:10:17.798304,15.27558454,.00007185,42.9999,219.4193,270.1757,89.9012,0,U,59241,999,12985,.16231621E-3,.4204E-4,0
STARLINK-31423,2024-049M,2026-07-01T19:00:59.552352,15.27615612,.00024272,43.0002,219.3949,279.4261,80.6316,0,U,59242,999,12985,.2017411E-3,.5299E-4,0
STARLINK-31433,2024-049N,2026-07-01T08:59:05.618112,15.27580070,.00016445,43.0023,221.4259,283.8902,76.1767,0,U,59243,999,12979,.21937857E-4,.341E-5,0
STARLINK-31285,2024-049P,2026-07-01T19:35:59.493120,15.27576293,.00010973,43.0020,218.7234,286.2863,73.7868,0,U,59244,999,12985,.13325149E-4,.105E-5,0
STARLINK-31284,2024-049R,2026-07-01T19:52:37.523712,15.27581365,.00039411,43.0091,218.8094,272.2085,87.8316,0,U,59246,999,12985,.55714839E-4,.127E-4,0
STARLINK-31424,2024-049S,2026-07-01T09:07:12.640224,15.27570348,.00020146,43.0007,217.9976,276.2626,83.7996,0,U,59247,999,12982,-.12463652E-4,-.605E-5,0
STARLINK-31405,2024-049T,2026-07-01T09:25:00.118272,15.27580682,.00014054,42.9993,221.5540,267.4313,92.6378,0,U,59248,999,12978,.40142276E-4,.843E-5,0
STARLINK-31426,2024-049U,2026-07-01T18:55:29.482752,15.27579462,.00013325,42.9996,219.3609,275.6171,84.4529,0,U,59249,999,12984,.1615184E-4,.182E-5,0
STARLINK-31407,2024-049V,2026-07-01T18:35:10.487616,15.27582181,.00011343,42.9977,208.0151,256.4420,103.6305,0,U,59250,999,12997,.81760321E-4,.1989E-4,0
STARLINK-31393,2024-049X,2026-07-01T18:50:39.879456,15.27580070,.00012109,43.0011,204.6284,289.7644,70.3077,0,U,59252,999,13002,.63790717E-4,.1494E-4,0
STARLINK-31425,2024-049Y,2026-07-01T19:47:06.381888,15.27580762,.00008378,43.0000,218.7814,273.6479,86.4277,0,U,59253,999,12985,.90432751E-4,.2227E-4,0
STARLINK-31659,2024-050A,2026-07-01T18:30:14.789664,15.34396174,.00008036,53.1601,6.9425,98.9974,261.1119,0,U,59254,999,12922,.28490232E-4,.587E-5,0
STARLINK-31629,2024-050B,2026-07-01T05:50:33.794016,15.30215623,.0001247,53.1631,13.5879,103.4773,256.6367,0,U,59255,999,12793,-.12651E-3,-.4106E-4,0
STARLINK-31652,2024-050C,2026-06-30T13:21:16.407360,15.31702388,.00009445,53.1614,16.4120,81.8517,278.2592,0,U,59256,999,12783,-.892608E-6,-.393E-5,0
STARLINK-31637,2024-050E,2026-07-01T19:07:17.123808,15.34396230,.00009958,53.1617,10.6437,78.5514,281.5600,0,U,59258,999,12802,.68750661E-4,.1947E-4,0
STARLINK-31506,2024-050F,2026-07-01T05:46:00.648192,15.30198171,.000084,53.1619,13.5668,126.0310,234.0769,0,U,59259,999,12793,-.89395E-4,-.3005E-4,0
STARLINK-31639,2024-050H,2026-07-01T22:07:41.912832,15.31727962,.00010048,53.1598,10.0051,68.5877,291.5232,0,U,59261,999,12804,.26619481E-3,.7911E-4,0
STARLINK-31598,2024-050K,2026-07-01T22:20:56.202720,15.34406699,.00012277,53.1611,10.0384,80.5061,279.6080,0,U,59263,999,12804,.10483583E-3,.3168E-4,0
STARLINK-31645,2024-050L,2026-07-01T15:16:53.140224,15.33573842,.00015208,53.1590,11.7726,86.7422,273.3754,0,U,59264,999,12799,.12308728E-2,.40358E-3,0
STARLINK-31646,2024-050M,2026-07-01T19:22:26.011200,15.34392820,.00008429,53.1604,10.7056,86.4458,273.6641,0,U,59265,999,12802,.91612042E-4,.272E-4,0
STARLINK-31648,2024-050N,2026-07-01T19:43:22.064160,15.30206312,.00011999,53.1605,10.7994,88.1163,271.9976,0,U,59266,999,12802,.37039735E-4,.738E-5,0
STARLINK-31579,2024-050P,2026-07-01T12:12:52.186176,15.30194923,.00011647,53.1618,12.3946,106.3032,253.8097,0,U,59267,999,12797,.2430029E-4,.361E-5,0
STARLINK-31627,2024-050Q,2026-07-01T19:25:27.105600,15.34455228,.0000369,53.1592,10.7168,290.0009,70.0954,0,U,59268,999,12802,.94572868E-3,.31768E-3,0
STARLINK-31609,2024-050R,2026-07-01T19:31:31.729152,15.34410249,.00016151,53.1601,10.7402,81.3636,278.7550,0,U,59269,999,12802,.18625667E-3,.5924E-4,0
STARLINK-31616,2024-050S,2026-07-01T22:17:54.698784,15.34404692,.00013753,53.1607,10.0419,82.9060,277.2099,0,U,59270,999,12804,.12474134E-3,.3841E-4,0
STARLINK-31630,2024-050T,2026-07-01T21:25:37.096608,15.34412501,.00009951,53.1592,356.3192,67.0562,293.0546,0,U,59271,999,12823,.34848799E-3,.11421E-3,0
STARLINK-31623,2024-050U,2026-07-01T22:10:13.833408,15.32424820,.00005876,53.1607,10.0139,106.8315,253.2751,0,U,59272,999,12804,.70242301E-2,.229583E-2,0
STARLINK-31595,2024-050V,2026-07-01T19:47:56.119776,15.30200197,.00006702,53.1599,10.8326,88.8304,271.2773,0,U,59273,999,12802,.64956214E-4,.1565E-4,0
YUNHAI-2 02A,2024-052A,2026-07-01T22:34:15.060576,14.27965338,.00115861,50.0099,20.1858,196.8781,163.1750,0,U,59280,999,10033,.10855709E-3,.11E-5,0
YUNHAI-2 02B,2024-052B,2026-07-01T23:38:22.202016,14.27979119,.00047978,50.0116,319.7828,239.0068,121.0376,0,U,59281,999,11872,.10688035E-3,.106E-5,0
YUNHAI-2 02C,2024-052C,2026-07-01T23:05:10.408992,14.27968613,.00062583,50.0091,79.8186,214.9961,145.0543,0,U,59282,999,11691,.11229504E-3,.119E-5,0
YUNHAI-2 02D,2024-052D,2026-07-02T00:09:56.420928,14.28001123,.00049133,50.0054,199.5517,274.3190,85.7163,0,U,59283,999,12051,.95198589E-4,.77E-6,0
YUNHAI-2 02E,2024-052E,2026-07-01T21:26:16.492416,14.27969463,.0011715,50.0103,260.4722,111.1862,249.0305,0,U,59284,999,10903,.10371598E-3,.98E-6,0
YUNHAI-2 02F,2024-052F,2026-07-01T22:01:40.876608,14.27994900,.00052734,50.0096,140.5272,235.0342,125.0078,0,U,59285,999,12126,.11120846E-3,.117E-5,0
MOLA,2024-053B,2026-07-01T19:38:05.696736,15.60649121,.00044562,49.9839,218.0110,8.9821,351.1228,0,U,59289,999,12378,.62159439E-3,.52455E-3,0
AEROCUBE 16A,2024-053C,2026-07-01T14:24:04.594752,15.44276957,.00032522,49.9880,251.4134,15.7848,344.3217,0,U,59290,999,12333,.40186394E-3,.18457E-3,0
AEROCUBE 16B,2024-053D,2026-07-01T12:59:58.563456,15.44242988,.00032317,49.9901,251.9337,12.4555,347.6488,0,U,59291,999,12340,.3786358E-3,.17343E-3,0
STARLINK-31463,2024-056A,2026-07-01T16:21:51.568704,15.27590636,.00013574,43.0014,302.9970,269.3827,90.6869,0,U,59296,999,12863,.14572294E-3,.3751E-4,0
STARLINK-31487,2024-056B,2026-07-01T16:04:42.627648,15.27591037,.00016612,43.0057,307.2248,275.0854,84.9808,0,U,59297,999,12870,.11520406E-3,.291E-4,0
STARLINK-31386,2024-056C,2026-07-01T17:12:58.089600,15.27591279,.00011222,43.0025,306.7223,274.0331,86.0392,0,U,59298,999,12859,.11582536E-3,.2928E-4,0
STARLINK-31409,2024-056D,2026-07-01T15:43:54.392160,15.27593509,.00012397,43.0048,300.1980,274.6072,85.4638,0,U,59299,999,12878,.11116748E-3,.2799E-4,0
STARLINK-31489,2024-056E,2026-07-01T19:59:04.819488,15.27613466,.00014942,43.0013,305.8682,275.4284,84.6397,0,U,59300,999,12861,.12161495E-2,.3339E-3,0
STARLINK-31502,2024-056F,2026-07-01T16:41:02.927328,15.27589986,.00012692,43.0027,299.6256,270.3469,89.7238,0,U,59301,999,12867,.55206742E-4,.1258E-4,0
STARLINK-31447,2024-056G,2026-07-01T01:35:07.768896,15.27572634,.00005826,43.0059,310.4320,316.4706,43.6100,0,U,59302,999,12849,-.21382016E-4,-.85E-5,0
STARLINK-31504,2024-056H,2026-07-01T01:46:12.908064,15.27582933,.00012355,43.0036,310.4904,266.7731,93.2979,0,U,59303,999,12849,.15679226E-4,.169E-5,0
STARLINK-31474,2024-056J,2026-06-30T16:18:58.538880,15.27585470,.00015258,43.0025,305.7698,273.0492,87.0185,0,U,59304,999,12851,-.33400601E-4,-.1181E-4,0
STARLINK-31500,2024-056K,2026-06-30T17:49:54.733440,15.27562983,.00005162,42.9987,312.3109,21.9883,338.0990,0,U,59305,999,12844,.8619111E-5,-.25E-6,0
STARLINK-31480,2024-056L,2026-07-01T20:10:09.779808,15.27603681,.00038422,43.0031,305.9212,248.5605,111.4837,0,U,59306,999,12861,.55108732E-4,.1255E-4,0
STARLINK-31282,2024-056M,2026-07-01T15:59:09.531456,15.27587300,.00014399,43.0047,307.1943,264.3264,95.7423,0,U,59307,999,12858,.88005922E-4,.2161E-4,0
STARLINK-31485,2024-056N,2026-07-01T19:18:33.649632,15.27600706,.00031758,43.0085,306.5076,271.2037,88.8451,0,U,59308,999,12860,.58944651E-4,.136E-4,0
STARLINK-31455,2024-056P,2026-07-01T19:19:15.289248,15.27613110,.00027921,43.0053,303.0636,275.0775,84.9758,0,U,59309,999,12864,-.24492967E-4,-.938E-5,0
STARLINK-31475,2024-056Q,2026-07-01T19:15:36.378432,15.27514263,.00005479,43.0024,303.0405,50.0978,309.9922,0,U,59310,999,12876,.68931207E-3,.18716E-3,0
STARLINK-31445,2024-056S,2026-07-01T20:42:06.124896,15.27584424,.00014894,43.0039,313.0086,277.1524,82.9158,0,U,59312,999,12853,.12703779E-4,.87E-6,0
STARLINK-31495,2024-056T,2026-07-01T16:52:25.850208,15.36438050,.00104704,42.9998,297.0800,342.3535,17.6955,0,U,59313,999,12870,.16813739E-2,.61398E-3,0
STARLINK-31477,2024-056U,2026-07-01T16:11:27.433248,15.27584086,.00008098,42.9978,299.4788,274.2858,85.7901,0,U,59314,999,12867,.15349344E-3,.3965E-4,0
STARLINK-31446,2024-056V,2026-07-01T18:19:23.939328,15.27576445,.00010397,43.0029,306.2046,272.4103,87.6630,0,U,59315,999,12860,-.74302028E-4,-.2306E-4,0
STARLINK-31479,2024-056W,2026-07-01T16:48:26.105760,15.27583000,.00012634,43.0024,310.9100,275.4823,84.5885,0,U,59316,999,12854,.65667307E-4,.1545E-4,0
STARLINK-31349,2024-056X,2026-07-01T17:07:24.825792,15.27585136,.00013077,43.0061,306.6866,274.6811,85.3891,0,U,59317,999,12866,.56269184E-4,.1287E-4,0
STARLINK-31464,2024-056Y,2026-07-01T20:04:36.808032,15.27603127,.00029769,43.0064,305.8923,269.7685,90.2826,0,U,59318,999,12861,-.62185414E-4,-.1975E-4,0
STARLINK-31402,2024-057A,2026-07-01T19:20:03.503040,15.32652878,.00038802,43.0022,214.0678,56.4839,303.6385,0,U,59320,999,12783,.13166105E-2,.42369E-3,0
STARLINK-31578,2024-057B,2026-07-01T21:59:29.267808,15.27574652,.00007799,43.0027,261.5400,280.3037,79.7727,0,U,59321,999,12731,.14336104E-4,.133E-5,0
STARLINK-31530,2024-057C,2026-07-01T20:07:31.539072,15.71738774,.00259938,42.9849,230.2987,63.2200,297.1323,0,U,59322,999,12766,.68422089E-3,.93595E-3,0
STARLINK-31565,2024-057D,2026-07-01T22:33:28.554912,15.27563102,.00010323,43.0037,269.5068,276.1907,83.8827,0,U,59323,999,12722,-.21057398E-4,-.841E-5,0
STARLINK-31570,2024-057E,2026-07-01T21:56:00.201408,15.27570631,.00012678,43.0002,262.3859,284.6312,75.4400,0,U,59324,999,12730,.11183475E-3,.2816E-4,0
